{
  "type": "FeatureCollection",
  "features": [
    {
      "type": "Feature",
      "properties": {
        "norad_id": 32089,
        "name": "FENGYUN 1C DEB",
        "group": "fengyun-1c-debris",
        "lat": 42.70968993301012,
        "lon": -24.08078053098011,
        "alt_km": 862.0210546160188,
        "timestamp": "2025-12-04T03:47:54.828433+00:00",
        "meta_object_name": "FENGYUN 1C DEB",
        "meta_object_id": "1999-025CQF",
        "meta_epoch": "2025-11-26T07:05:08.743776",
        "meta_mean_motion": 14.1401839,
        "meta_eccentricity": 0.01118311,
        "meta_inclination": 98.6554,
        "meta_ra_of_asc_node": 336.3858,
        "meta_arg_of_pericenter": 170.8108,
        "meta_mean_anomaly": 189.5147,
        "meta_ephemeris_type": 0,
        "meta_classification_type": "U",
        "meta_norad_cat_id": 32089,
        "meta_element_set_no": 999,
        "meta_rev_at_epoch": 62983,
        "meta_bstar": 0.00062311827,
        "meta_mean_motion_dot": 1.215e-05,
        "meta_mean_motion_ddot": 0,
        "tle_line1": "1 32089U 99025CQF 25330.29524009  .00001215  00000+0  62312-3 0  9996",
        "tle_line2": "2 32089  98.6554 336.3858 0111831 170.8108 189.5147 14.14018390629831"
      },
      "geometry": {
        "type": "Point",
        "coordinates": [
          -24.08078053098011,
          42.70968993301012
        ]
      }
    },
    {
      "type": "Feature",
      "properties": {
        "norad_id": 32093,
        "name": "FENGYUN 1C DEB",
        "group": "fengyun-1c-debris",
        "lat": -62.37977096750701,
        "lon": -151.8611511397537,
        "alt_km": 765.7340222887706,
        "timestamp": "2025-12-04T03:47:54.828443+00:00",
        "meta_object_name": "FENGYUN 1C DEB",
        "meta_object_id": "1999-025CQK",
        "meta_epoch": "2025-12-03T01:21:54.068256",
        "meta_mean_motion": 14.37564679,
        "meta_eccentricity": 0.00798444,
        "meta_inclination": 98.9206,
        "meta_ra_of_asc_node": 189.5281,
        "meta_arg_of_pericenter": 21.9826,
        "meta_mean_anomaly": 338.4753,
        "meta_ephemeris_type": 0,
        "meta_classification_type": "U",
        "meta_norad_cat_id": 32093,
        "meta_element_set_no": 999,
        "meta_rev_at_epoch": 96378,
        "meta_bstar": 0.00052363657,
        "meta_mean_motion_dot": 1.581e-05,
        "meta_mean_motion_ddot": 0,
        "tle_line1": "1 32093U 99025CQK 25337.05687579  .00001581  00000+0  52364-3 0  9996",
        "tle_line2": "2 32093  98.9206 189.5281 0079844  21.9826 338.4753 14.37564679963785"
      },
      "geometry": {
        "type": "Point",
        "coordinates": [
          -151.8611511397537,
          -62.37977096750701
        ]
      }
    },
    {
      "type": "Feature",
      "properties": {
        "norad_id": 32094,
        "name": "FENGYUN 1C DEB",
        "group": "fengyun-1c-debris",
        "lat": -12.653780283223247,
        "lon": 146.8223002958469,
        "alt_km": 866.0082297357794,
        "timestamp": "2025-12-04T03:47:54.828469+00:00",
        "meta_object_name": "FENGYUN 1C DEB",
        "meta_object_id": "1999-025CQL",
        "meta_epoch": "2025-12-01T22:06:55.792512",
        "meta_mean_motion": 14.10702032,
        "meta_eccentricity": 0.00343203,
        "meta_inclination": 98.7444,
        "meta_ra_of_asc_node": 326.6263,
        "meta_arg_of_pericenter": 300.0247,
        "meta_mean_anomaly": 59.7521,
        "meta_ephemeris_type": 0,
        "meta_classification_type": "U",
        "meta_norad_cat_id": 32094,
        "meta_element_set_no": 999,
        "meta_rev_at_epoch": 94212,
        "meta_bstar": 0.00046947738,
        "meta_mean_motion_dot": 8e-06,
        "meta_mean_motion_ddot": 0,
        "tle_line1": "1 32094U 99025CQL 25335.92147908  .00000800  00000+0  46948-3 0  9992",
        "tle_line2": "2 32094  98.7444 326.6263 0034320 300.0247  59.7521 14.10702032942129"
      },
      "geometry": {
        "type": "Point",
        "coordinates": [
          146.8223002958469,
          -12.653780283223247
        ]
      }
    },
    {
      "type": "Feature",
      "properties": {
        "norad_id": 32095,
        "name": "FENGYUN 1C DEB",
        "group": "fengyun-1c-debris",
        "lat": -22.004157334808884,
        "lon": 170.5056556897548,
        "alt_km": 839.4364395335015,
        "timestamp": "2025-12-04T03:47:54.828480+00:00",
        "meta_object_name": "FENGYUN 1C DEB",
        "meta_object_id": "1999-025CQM",
        "meta_epoch": "2025-12-01T18:53:30.579936",
        "meta_mean_motion": 14.16020076,
        "meta_eccentricity": 0.00791206,
        "meta_inclination": 98.6419,
        "meta_ra_of_asc_node": 351.7287,
        "meta_arg_of_pericenter": 123.2072,
        "meta_mean_anomaly": 237.6721,
        "meta_ephemeris_type": 0,
        "meta_classification_type": "U",
        "meta_norad_cat_id": 32095,
        "meta_element_set_no": 999,
        "meta_rev_at_epoch": 94662,
        "meta_bstar": 0.00029755138,
        "meta_mean_motion_dot": 5.63e-06,
        "meta_mean_motion_ddot": 0,
        "tle_line1": "1 32095U 99025CQM 25335.78715949  .00000563  00000+0  29755-3 0  9996",
        "tle_line2": "2 32095  98.6419 351.7287 0079120 123.2072 237.6721 14.16020076946629"
      },
      "geometry": {
        "type": "Point",
        "coordinates": [
          170.5056556897548,
          -22.004157334808884
        ]
      }
    },
    {
      "type": "Feature",
      "properties": {
        "norad_id": 32096,
        "name": "FENGYUN 1C DEB",
        "group": "fengyun-1c-debris",
        "lat": 66.30825767027356,
        "lon": -14.00852867363253,
        "alt_km": 928.7015395625622,
        "timestamp": "2025-12-04T03:47:54.828490+00:00",
        "meta_object_name": "FENGYUN 1C DEB",
        "meta_object_id": "1999-025CQN",
        "meta_epoch": "2025-12-01T13:16:49.852128",
        "meta_mean_motion": 13.9013068,
        "meta_eccentricity": 0.01346343,
        "meta_inclination": 99.0772,
        "meta_ra_of_asc_node": 4.8151,
        "meta_arg_of_pericenter": 170.0146,
        "meta_mean_anomaly": 190.3736,
        "meta_ephemeris_type": 0,
        "meta_classification_type": "U",
        "meta_norad_cat_id": 32096,
        "meta_element_set_no": 999,
        "meta_rev_at_epoch": 92706,
        "meta_bstar": 0.0012264124,
        "meta_mean_motion_dot": 1.588e-05,
        "meta_mean_motion_ddot": 0,
        "tle_line1": "1 32096U 99025CQN 25335.55335477  .00001588  00000+0  12264-2 0  9990",
        "tle_line2": "2 32096  99.0772   4.8151 0134634 170.0146 190.3736 13.90130680927069"
      },
      "geometry": {
        "type": "Point",
        "coordinates": [
          -14.00852867363253,
          66.30825767027356
        ]
      }
    },
    {
      "type": "Feature",
      "properties": {
        "norad_id": 32098,
        "name": "FENGYUN 1C DEB",
        "group": "fengyun-1c-debris",
        "lat": -79.50218052635618,
        "lon": 95.94784133830609,
        "alt_km": 899.052672687737,
        "timestamp": "2025-12-04T03:47:54.828500+00:00",
        "meta_object_name": "FENGYUN 1C DEB",
        "meta_object_id": "1999-025CQQ",
        "meta_epoch": "2025-11-29T05:54:21.217824",
        "meta_mean_motion": 14.20229965,
        "meta_eccentricity": 0.01954302,
        "meta_inclination": 98.6126,
        "meta_ra_of_asc_node": 326.0376,
        "meta_arg_of_pericenter": 158.6882,
        "meta_mean_anomaly": 202.2577,
        "meta_ephemeris_type": 0,
        "meta_classification_type": "U",
        "meta_norad_cat_id": 32098,
        "meta_element_set_no": 999,
        "meta_rev_at_epoch": 64036,
        "meta_bstar": 0.00026691948,
        "meta_mean_motion_dot": 6.47e-06,
        "meta_mean_motion_ddot": 0,
        "tle_line1": "1 32098U 99025CQQ 25333.24607891  .00000647  00000+0  26692-3 0  9994",
        "tle_line2": "2 32098  98.6126 326.0376 0195430 158.6882 202.2577 14.20229965640367"
      },
      "geometry": {
        "type": "Point",
        "coordinates": [
          95.94784133830609,
          -79.50218052635618
        ]
      }
    },
    {
      "type": "Feature",
      "properties": {
        "norad_id": 32099,
        "name": "FENGYUN 1C DEB",
        "group": "fengyun-1c-debris",
        "lat": 0.6859475676948514,
        "lon": 130.99444996198235,
        "alt_km": 1043.8148197858063,
        "timestamp": "2025-12-04T03:47:54.828510+00:00",
        "meta_object_name": "FENGYUN 1C DEB",
        "meta_object_id": "1999-025CQR",
        "meta_epoch": "2025-12-03T04:33:36.004320",
        "meta_mean_motion": 13.91678631,
        "meta_eccentricity": 0.03436256,
        "meta_inclination": 98.2796,
        "meta_ra_of_asc_node": 310.028,
        "meta_arg_of_pericenter": 301.742,
        "meta_mean_anomaly": 72.5014,
        "meta_ephemeris_type": 0,
        "meta_classification_type": "U",
        "meta_norad_cat_id": 32099,
        "meta_element_set_no": 999,
        "meta_rev_at_epoch": 64555,
        "meta_bstar": 0.0022629905,
        "meta_mean_motion_dot": 4.614e-05,
        "meta_mean_motion_ddot": 0,
        "tle_line1": "1 32099U 99025CQR 25337.19000005  .00004614  00000+0  22630-2 0  9992",
        "tle_line2": "2 32099  98.2796 310.0280 0343625 301.7420  72.5014 13.91678631645559"
      },
      "geometry": {
        "type": "Point",
        "coordinates": [
          130.99444996198235,
          0.6859475676948514
        ]
      }
    }
  ]
}